CZ-2D R/B               
1 28738U 05024B   26126.01664389  .00045514  00000+0  45589-3 0  9995
2 28738  97.3528 143.4786 0006093 145.9148 214.2504 15.65405532148734
ALOS (DAICHI)           
1 28931U 06002A   26125.82038597  .00001182  00000+0  20549-3 0  9993
2 28931  98.1298  81.5304 0002128  95.0123 265.1326 14.69964279 81872
H-2A R/B                
1 28932U 06002B   26125.66405159  .00007993  00000+0  38831-3 0  9997
2 28932  98.2519 277.6779 0051947  48.7281 311.8407 15.17556951103071
RESURS-DK 1             
1 29228U 06021A   26126.05712235  .00002315  00000+0  13677-3 0  9991
2 29228  69.9328  88.5954 0004202 333.1476  26.9472 15.13042046 96209
CZ-4B R/B               
1 29507U 06046C   26126.05463550  .00004885  00000+0  24383-3 0  9991
2 29507  97.5485 170.7952 0034375  70.0577 290.4354 15.17455795 68743
CZ-2C R/B               
1 31114U 07010B   26126.21321816  .00000132  00000+0  79331-4 0  9991
2 31114  98.4051 236.6274 0060015 126.3982 234.2752 14.20265919987886
COSMO-SKYMED 1          
1 31598U 07023A   26126.15836564  .00003022  00000+0  26843-3 0  9995
2 31598  97.8878 317.6647 0001809  87.6847 272.4581 14.96911218 23508
COSMOS 2428             
1 31792U 07029A   26125.94947331 -.00000214  00000+0 -89289-4 0  9994
2 31792  70.9394  83.1531 0008534 210.4355 149.6271 14.12942475972183
SL-16 R/B               
1 31793U 07029B   26126.20192704  .00000157  00000+0  10593-3 0  9996
2 31793  70.9774  51.4864 0002646 269.2037 241.1023 14.14851117973504
KORONAS-FOTON           
1 33504U 09003A   26125.98684801  .00012092  00000+0  25663-3 0  9995
2 33504  82.4310 216.2447 0009100 311.2138  48.8325 15.44848913954588
CZ-2C R/B               
1 37731U 11030B   26125.88579175  .00000966  00000+0  12754-3 0  9994
2 37731  97.8628  82.0476 0052772 162.6349 217.7378 14.81377445798568
H-2A R/B                
1 38341U 12025E   26125.94080238  .00003197  00000+0  28899-3 0  9997
2 38341  98.4815  97.6212 0045575 124.1543 236.4011 14.95498091756778
SHIJIAN-16 (SJ-16)      
1 39358U 13057A   26126.21191014  .00001439  00000+0  14266-3 0  9998
2 39358  74.9723  76.1754 0016526 327.6912  32.3262 14.92500579680084
SL-4 R/B                
1 39679U 14021B   26126.18257321  .00012307  00000+0  26132-3 0  9997
2 39679  51.6070  56.3939 0092199 313.2966  46.0355 15.40993994665137
ALOS-2                  
1 39766U 14029A   26126.20676769 -.00000016  00000+0  46922-5 0  9992
2 39766  97.9214 223.9701 0001606  89.4981 270.6414 14.79455366645370
YAOGAN-29               
1 41038U 15069A   26126.21213824 -.00000186  00000+0 -16214-4 0  9991
2 41038  98.0055 154.7737 0002346 123.4288 236.7150 14.83048976564405
ASTRO-H (HITOMI)        
1 41337U 16012A   26125.93847208  .00002881  00000+0  16565-3 0  9999
2 41337  31.0006 347.0056 0009528 189.0608 170.9859 15.10337289560897
HXMT (HUIYAN)           
1 42758U 17034A   26126.16191916  .00005077  00000+0  25262-3 0  9990
2 42758  43.0153  56.9771 0032883 239.9600 119.7984 15.18099025491274
SAOCOM 1A               
1 43641U 18076A   26126.14446032  .00000599  00000+0  81832-4 0  9999
2 43641  97.8886 313.5024 0001600  89.0319 271.1078 14.82163969409874
H-2A R/B                
1 43682U 18084L   26126.07691280  .00017431  00000+0  38537-3 0  9998
2 43682  98.8632 355.8152 0023992 180.7132 179.4081 15.43628027414622
SAOCOM 1B               
1 46265U 20059A   26126.17575251 -.00000083  00000+0 -38997-5 0  9992
2 46265  97.8887 312.6268 0001569  81.7313 278.4078 14.82155642307266
CSS (TIANHE)            
1 48274U 21035A   26126.12870869  .00024763  00000+0  26378-3 0  9994
2 48274  41.4665 217.9376 0005250 340.5618  19.5021 15.63386902286598
COSMOS 2550             
1 48865U 21056A   26125.05229304 -.00000084  00000+0  32899-5 0  9994
2 48865  67.1434 230.3860 0008452 270.0790  89.9396 15.33834130272101
CZ-2C R/B               
1 52794U 22058K   26126.10185966  .00043004  00000+0  53316-3 0  9998
2 52794  50.1883  21.9827 0037090  87.3871 273.1346 15.58726066219077
CZ-2C R/B               
1 54039U 22132E   26125.93498366  .00046123  00000+0  42847-3 0  9998
2 54039  97.2934 131.2229 0013812 226.6128 133.3983 15.67185127199326
GSLV R/B                
1 54149U 22138AN  26126.00952529  .00002566  00000+0  21945-3 0  9990
2 54149  87.3800 147.1500 0019103 307.6974  52.2525 14.97075974192500
XRISM                   
1 57800U 23137A   26125.75058699  .00005612  00000+0  31215-3 0  9999
2 57800  31.0025 274.4107 0007711 256.2667 103.7114 15.12115512146437
ACS3                    
1 59588U 24077B   26125.75788217  .00037946  00000+0  29122-1 0  9991
2 59588  97.1792  54.0549 0047067 339.9781  19.9537 13.92424371102130
HTV-X1                  
1 66174U 25241A   26126.10298919  .00013688  00000+0  15149-3 0  9992
2 66174  51.6335 153.2109 0007446  29.7210 330.4206 15.63304691 29762
SZ-21 MODULE            
1 66515U 25246C   26126.22881135  .00038764  00000+0  27572-3 0  9992
2 66515  41.4720 207.9534 0002644  42.5272 317.5775 15.73091566 27121
